satname,norad_id,inclination_deg,eccentricity,mean_motion_rev_per_day,perigee_km,apogee_km,l1,l2
STARLINK-1008,44714,53.0542,0.0001529,15.06399877,546.1530490634386,548.270820767736,1 44714U 19074B   25324.29890078  .00000913  00000+0  80212-4 0  9999,2 44714  53.0542 317.6900 0001529  80.2788 279.8374 15.06399877332268
STARLINK-1011,44717,53.0437,0.0003524,15.99963867,272.17446428529365,276.8632561355689,1 44717U 19074E   25324.91668980  .00514673  12646-3  98762-3 0  9990,2 44717  53.0437 284.7983 0003524  72.9050  30.1532 15.99963867  5917
STARLINK-1012,44718,53.0562,0.0001329,15.06400576,546.289413993065,548.1301711705337,1 44718U 19074F   25324.67486600 -.00001649  00000+0 -91854-4 0  9990,2 44718  53.0562 316.0049 0001329  88.3488 271.7653 15.06400576332311
STARLINK-1017,44723,53.0527,0.0004399,15.16434045,513.595346116077,519.6613606739938,1 44723U 19074L   25324.26187764  .00042928  00000+0  21838-2 0  9996,2 44723  53.0527 313.1664 0004399  16.4187 343.6948 15.16434045332323
STARLINK-1019,44724,53.0542,0.0001121,15.51909818,410.3892301743954,411.91138838913594,1 44724U 19074M   25324.91668980  .00089907  00000+0  14645-2 0  9999,2 44724  53.0542 310.8354 0001121  99.5535  83.8277 15.51909818  5790
STARLINK-1020,44725,53.0551,0.0001865,15.06413289,545.8792594564802,548.4623992768347,1 44725U 19074N   25324.47766641  .00002618  00000+0  19450-3 0  9998,2 44725  53.0551 336.8914 0001865  97.9260 262.1940 15.06413289332001
STARLINK-1031,44736,53.0494,0.0006779,15.52177793,405.76693647486627,414.97079272609153,1 44736U 19074Z   25324.91668980  .00161260  00000+0  25704-2 0  9993,2 44736  53.0494 297.9407 0006779  10.2773   8.4895 15.52177793  5824
STARLINK-1036,44741,53.0569,0.0001679,15.06434572,545.942853531139,548.2683499968116,1 44741U 19074AE  25324.44077568  .00005324  00000+0  37570-3 0  9996,2 44741  53.0569 337.0541 0001679  74.2942 285.8232 15.06434572332009
STARLINK-1039,44744,53.0505,0.0001275,15.14295906,522.237047499505,523.9968672586365,1 44744U 19074AH  25324.47781404  .00035633  00000+0  19307-2 0  9996,2 44744  53.0505 353.8371 0001275 258.0663 102.0186 15.14295906331779
STARLINK-1042,44747,53.0473,0.0003466,15.44210611,431.337541312344,436.0595056972379,1 44747U 19074AL  25324.20901932  .00020966  00000+0  45735-3 0  9998,2 44747  53.0473 257.7754 0003466 128.7873 231.3443 15.44210611333129
STARLINK-1043,44748,53.0564,0.0001603,15.23614124,493.8483510156975,496.0518627421625,1 44748U 19074AM  25324.91668980  .02159242  00000+0  80955-1 0  9993,2 44748  53.0564 354.4021 0001603 107.6206  11.4544 15.23614124  5792
STARLINK-1046,44751,53.0552,0.0001212,15.06401591,546.3673301024864,548.0460334109439,1 44751U 19074AQ  25324.36155810  .00002397  00000+0  17972-3 0  9996,2 44751  53.0552 357.4112 0001212  92.2868 267.8260 15.06401591331715
STARLINK-1047,44752,53.0707,0.0001296,15.29819051,475.4644086233675,477.24109236669574,1 44752U 19074AR  25324.62359301  .00009191  00000+0  32580-3 0  9998,2 44752  53.0707 294.4405 0001296 213.1969 146.8949 15.29819051332632
STARLINK-1048,44753,53.0557,0.0001472,15.06406441,546.1724088693882,548.2112256731925,1 44753U 19074AS  25324.25466564 -.00000561  00000+0 -18793-4 0  9993,2 44753  53.0557 317.8898 0001472  95.0443 265.0714 15.06406441332254
STARLINK-1053,44758,53.04,0.0005336,15.63652689,373.51178502145376,380.7209914373725,1 44758U 19074AX  25324.56934652  .00067149  00000+0  70741-3 0  9993,2 44758  53.0400 266.8237 0005336  95.4962 264.6661 15.63652689333010
STARLINK-1054,44759,53.0197,0.00047,16.39822134,163.19982313503806,169.351571070315,1 44759U 19074AY  25324.26110816  .07617955  12283-4  56629-3 0  9992,2 44759  53.0197 285.7052 0004700 164.1383 195.9811 16.39822134330359
STARLINK-1060,44765,53.0508,0.0007065,15.68296545,359.01139461843286,368.5377156458344,1 44765U 19074BE  25324.91668980  .00199285  00000+0  17051-2 0  9999,2 44765  53.0508 310.7971 0007065  53.7906 210.3113 15.68296545  5743
STARLINK-1063,44768,53.0558,0.0001332,15.06395316,546.3034554207425,548.1483721009699,1 44768U 19074BH  25324.74859000 -.00001852  00000+0 -10546-3 0  9995,2 44768  53.0558 355.6750 0001332  89.3874 270.7267 15.06395316331788
STARLINK-1067,44771,53.0551,0.0001308,15.0640758,546.2824938747162,548.0941589801096,1 44771U 19074BL  25324.47213407  .00004886  00000+0  34659-3 0  9993,2 44771  53.0551 356.9163 0001308  99.3060 260.8077 15.06407580331739
STARLINK-1068,44772,53.057,0.0001568,15.06396532,546.1362905586839,548.3080831996895,1 44772U 19074BM  25324.33022926  .00000897  00000+0  79115-4 0  9998,2 44772  53.0570 337.5546 0001568  93.6622 266.4546 15.06396532331984
STARLINK-1112,44925,53.0487,0.0002698,15.58078106,391.3927770161872,395.04660108559983,1 44925U 20001M   25324.91668980  .00078150  00000+0  10177-2 0  9998,2 44925  53.0487  65.4822 0002698 281.3274 251.4714 15.58078106  5710
STARLINK-1114,44927,53.056,0.0001003,15.06399586,546.5182142013136,547.9074393765677,1 44927U 20001P   25324.70065810  .00000984  00000+0  84934-4 0  9994,2 44927  53.0560 115.8899 0001003  88.0910 272.0194 15.06399586323429
STARLINK-1123,44930,53.0513,0.0001398,15.06384925,546.289590839795,548.2259312149772,1 44930U 20001S   25323.72020891  .00000782  00000+0  71431-4 0  9993,2 44930  53.0513 120.2915 0001398  90.1513 269.9636 15.06384925323270
STARLINK-1144,44933,53.0427,0.0003932,15.66401619,366.5576726181289,371.86378687280103,1 44933U 20001V   25324.91668980  .00117920  00000+0  11033-2 0  9998,2 44933  53.0427  41.4089 0003932 154.9421 198.8512 15.66401619  5946
STARLINK-1094,44941,53.0536,0.0001255,15.06415226,546.2957674467307,548.0340182218315,1 44941U 20001AD  25324.66194773 -.00005891  00000+0 -37676-3 0  9990,2 44941  53.0536  96.0632 0001255  80.4412 279.6719 15.06415226323690
STARLINK-1096,44942,52.9776,0.0004991,16.11439156,239.59368780369368,246.20280518674554,1 44942U 20001AE  25324.81814749  .00851565  42795-3  80338-3 0  9999,2 44942  52.9776 200.2995 0004991 177.8900 182.2155 16.11439156327264
STARLINK-1122,44949,53.0535,0.0001389,15.06399971,546.2497158920578,548.1735777461454,1 44949U 20001AM  25324.75042132  .00001484  00000+0  11851-3 0  9998,2 44949  53.0535  95.6619 0001389  95.5710 264.5437 15.06399971323703
STARLINK-1080,44961,53.054,0.0001084,15.06402482,546.4532440171097,547.9546579352809,1 44961U 20001AZ  25324.48319021 -.00001559  00000+0 -85806-4 0  9993,2 44961  53.0540  76.8631 0001084  83.4125 276.6987 15.06402482323959
STARLINK-1090,44968,53.0535,0.0001303,15.06388882,546.3432558594604,548.1480105736764,1 44968U 20001BG  25324.68591334 -.00003476  00000+0 -21464-3 0  9990,2 44968  53.0535  75.9552 0001303  86.8095 273.3043 15.06388882323986
STARLINK-1107,44972,53.0045,0.0008091,15.79909382,325.26903510453576,336.12527053062513,1 44972U 20001BL  25324.91668980  .00353433  00000+0  17966-2 0  9993,2 44972  53.0045 339.4754 0008091  39.1395 195.9014 15.79909382  5960
STARLINK-1132,45044,53.0553,0.0001024,15.06409848,546.4722227994389,547.8905280027211,1 45044U 20006A   25324.57902597  .00010217  00000+0  70362-3 0  9996,2 45044  53.0553  36.4373 0001024  79.2887 280.8218 15.06409848320294
STARLINK-1131,45047,53.0554,0.0001196,15.06402573,546.3754013307016,548.0319428194634,1 45047U 20006D   25324.55514053  .00007465  00000+0  51945-3 0  9990,2 45047  53.0554  57.0835 0001196  81.4499 278.6625 15.06402573320008
STARLINK-1134,45048,53.0373,0.0006659,15.29875851,471.618799042154,480.7473825390689,1 45048U 20006E   25324.48776463  .00042652  00000+0  14576-2 0  9993,2 45048  53.0373  32.0102 0006659 223.3141 136.7335 15.29875851320356
STARLINK-1156,45054,53.0536,0.0001404,15.06409717,546.2094621365904,548.1540916491431,1 45054U 20006L   25324.52557353  .00000145  00000+0  28644-4 0  9994,2 45054  53.0536  56.6751 0001404  84.9897 275.1253 15.06409717320006
STARLINK-1159,45057,53.0555,0.000254,15.52653961,407.25693281728854,410.70478869055114,1 45057U 20006P   25324.77354087  .00107009  00000+0  16919-2 0  9990,2 45057  53.0555  49.5870 0002540   9.8542 350.2517 15.52653961320133
STARLINK-1166,45060,53.0554,0.0001326,15.06404912,546.278204184091,548.1148026291949,1 45060U 20006S   25324.55138256  .00002749  00000+0  20333-3 0  9999,2 45060  53.0554  56.5624 0001326  91.2679 268.8462 15.06404912320017
STARLINK-1169,45061,53.0549,0.0001159,15.06403345,546.3986593043492,548.0039527236831,1 45061U 20006T   25324.55875661  .00007127  00000+0  49682-3 0  9991,2 45061  53.0549  56.5277 0001159  83.1073 277.0048 15.06403345320019
STARLINK-1171,45062,53.0537,0.0006773,15.36189901,452.75874200608905,462.0181447717032,1 45062U 20006U   25324.91668980  .00031701  00000+0  89248-3 0  9993,2 45062  53.0537  48.5809 0006773 345.7336 250.1856 15.36189901  5869
STARLINK-1133,45064,53.0553,0.0001383,15.06384729,546.3005795707104,548.2161439277706,1 45064U 20006W   25324.62325615 -.00004735  00000+0 -29930-3 0  9999,2 45064  53.0553  36.2340 0001383  87.8817 272.2330 15.06384729320306
STARLINK-1167,45071,53.0552,0.0001364,15.06421107,546.2022600588689,548.0914774982721,1 45071U 20006AD  25324.58270038  .00004518  00000+0  32183-3 0  9991,2 45071  53.0552  36.4183 0001364  88.3703 271.7443 15.06421107320298
STARLINK-1168,45072,53.0549,0.0001305,15.06355969,546.4427343007401,548.2502854968234,1 45072U 20006AE  25324.58641294 -.00011885  00000+0 -78126-3 0  9992,2 45072  53.0549  36.4019 0001305  81.0729 279.0407 15.06355969320299
STARLINK-1172,45074,53.0552,0.0001162,15.0640407,546.3943599495888,548.0038080555105,1 45074U 20006AG  25324.46476683  .00004589  00000+0  32675-3 0  9999,2 45074  53.0552  36.9498 0001162  92.8448 267.2674 15.06404070320271
STARLINK-1153,45080,53.0551,0.0001199,15.0640818,546.3561412437057,548.0168338160147,1 45080U 20006AN  25324.50899439  .00009861  00000+0  67983-3 0  9997,2 45080  53.0551  36.7495 0001199  80.3517 279.7607 15.06408180320282
